{
    "links": {
        "self": "http://www.neowsapp.com/rest/v1/neo/3986844?api_key=iIulBulltgU6a56xZRHN4H3l9WmuAYTsLGpBGhQ2"
    },
    "id": "3986844",
    "neo_reference_id": "3986844",
    "name": "(2020 BQ3)",
    "designation": "2020 BQ3",
    "nasa_jpl_url": "http://ssd.jpl.nasa.gov/sbdb.cgi?sstr=3986844",
    "absolute_magnitude_h": 18.733,
    "estimated_diameter": {
        "kilometers": {
            "estimated_diameter_min": 0.4763815977,
            "estimated_diameter_max": 1.0652216356
        },
        "meters": {
            "estimated_diameter_min": 476.3815976726,
            "estimated_diameter_max": 1065.2216356259
        },
        "miles": {
            "estimated_diameter_min": 0.2960097097,
            "estimated_diameter_max": 0.661897833
        },
        "feet": {
            "estimated_diameter_min": 1562.9318009082,
            "estimated_diameter_max": 3494.821751027
        }
    },
    "is_potentially_hazardous_asteroid": false,
    "close_approach_data": [
        {
            "close_approach_date": "2025-12-08",
            "close_approach_date_full": "2025-Dec-08 11:43",
            "epoch_date_close_approach": 1765194180000,
            "relative_velocity": {
                "kilometers_per_second": "14.3713745527",
                "kilometers_per_hour": "51736.9483895684",
                "miles_per_hour": "32147.3277368405"
            },
            "miss_distance": {
                "astronomical": "0.4444761269",
                "lunar": "172.9012133641",
                "kilometers": "66492681.850089703",
                "miles": "41316636.6237477814"
            },
            "orbiting_body": "Earth"
        },
        {
            "close_approach_date": "2114-12-10",
            "close_approach_date_full": "2114-Dec-10 20:37",
            "epoch_date_close_approach": 4573917420000,
            "relative_velocity": {
                "kilometers_per_second": "15.6476390957",
                "kilometers_per_hour": "56331.5007443616",
                "miles_per_hour": "35002.2038930729"
            },
            "miss_distance": {
                "astronomical": "0.197120875",
                "lunar": "76.680020375",
                "kilometers": "29488863.03253625",
                "miles": "18323529.81505025"
            },
            "orbiting_body": "Earth"
        },
        {
            "close_approach_date": "2137-12-23",
            "close_approach_date_full": "2137-Dec-23 13:18",
            "epoch_date_close_approach": 5300860680000,
            "relative_velocity": {
                "kilometers_per_second": "18.5338768985",
                "kilometers_per_hour": "66721.9568346475",
                "miles_per_hour": "41458.4292342842"
            },
            "miss_distance": {
                "astronomical": "0.2529409014",
                "lunar": "98.3940106446",
                "kilometers": "37839420.085320018",
                "miles": "23512325.3600035284"
            },
            "orbiting_body": "Earth"
        }
    ],
    "orbital_data": {
        "orbit_id": "5",
        "orbit_determination_date": "2020-02-27 10:08:33",
        "first_observation_date": "2020-01-19",
        "last_observation_date": "2020-02-27",
        "data_arc_in_days": 39,
        "observations_used": 40,
        "orbit_uncertainty": "6",
        "minimum_orbit_intersection": ".285075",
        "jupiter_tisserand_invariant": "2.689",
        "epoch_osculation": "2459000.5",
        "eccentricity": ".6258467271179985",
        "semi_major_axis": "3.340032989080585",
        "inclination": "25.16101456386495",
        "ascending_node_longitude": "86.57986803092072",
        "orbital_period": "2229.587707664906",
        "perihelion_distance": "1.249684274398355",
        "perihelion_argument": "339.2514433650977",
        "aphelion_distance": "5.430381703762815",
        "perihelion_time": "2458760.576855742688",
        "mean_anomaly": "38.73914968031995",
        "mean_motion": ".1614648299155881",
        "equinox": "J2000",
        "orbit_class": {
            "orbit_class_type": "AMO",
            "orbit_class_description": "Near-Earth asteroid orbits similar to that of 1221 Amor",
            "orbit_class_range": "1.017 AU < q (perihelion) < 1.3 AU"
        }
    },
    "is_sentry_object": false
}